NORAD_CAT_ID,OBJECT_NAME,OBJECT_TYPE,EPOCH,MEAN_MOTION,ECCENTRICITY,INCLINATION,RA_OF_ASC_NODE,ARG_OF_PERICENTER,MEAN_ANOMALY,BSTAR,MEAN_MOTION_DOT,MEAN_MOTION_DDOT,TLE_LINE0,TLE_LINE1,TLE_LINE2,SEMIMAJOR_AXIS,PERIOD,APOGEE,PERIGEE,DECAYED
52627.0,STARLINK-3992,PAYLOAD,2022-08-14 14:00:01,15.08851411,0.0001515,53.2203,358.9792,62.1661,345.1177,-0.0011867,-0.0001913,0.0,0 STARLINK-3992,1 52627U 22052AF  22226.58334491 -.00019130  00000-0 -11867-2 0  9995,2 52627  53.2203 358.9792 0001515  62.1661 345.1177 15.08851411  1302,6917.846,95.437,540.759,538.6619999999998,0.0
52627.0,STARLINK-3992,PAYLOAD,2022-08-14 20:00:01,15.08837455,0.0001512,53.2204,357.8577,56.2249,269.762,0.00077616,0.00012085,0.0,0 STARLINK-3992,1 52627U 22052AF  22226.83334491  .00012085  00000-0  77616-3 0  9998,2 52627  53.2204 357.8577 0001512  56.2249 269.7620 15.08837455 14686,6917.888000000001,95.438,540.799,538.707,0.0
52627.0,STARLINK-3992,PAYLOAD,2022-08-14 22:00:00,15.08858583,0.0001488,53.2203,357.4833,55.4091,3.4716,-0.0022314,-0.00035643,0.0,0 STARLINK-3992,1 52627U 22052AF  22226.91667824 -.00035643  00000-0 -22314-2 0  9997,2 52627  53.2203 357.4833 0001488  55.4091   3.4716 15.08858583  1303,6917.824000000001,95.436,540.7180000000002,538.659,0.0
52627.0,STARLINK-3992,PAYLOAD,2022-08-15 12:00:00,15.08849953,0.0001408,53.2208,354.8642,61.8582,287.3024,-0.0012675999999999,-0.0002041,0.0,0 STARLINK-3992,1 52627U 22052AF  22227.50001157 -.00020410  00000-0 -12676-2 0  9990,2 52627  53.2208 354.8642 0001408  61.8582 287.3024 15.08849953 14787,6917.85,95.437,540.689,538.741,0.0
52627.0,STARLINK-3992,PAYLOAD,2022-08-15 14:00:01,15.08847091,0.0001468,53.2207,354.4907,59.1439,22.9173,-0.0012673,-0.00020404,0.0,0 STARLINK-3992,1 52627U 22052AF  22227.58334491 -.00020404  00000-0 -12673-2 0  9998,2 52627  53.2207 354.4907 0001468  59.1439  22.9173 15.08847091  1306,6917.859,95.437,540.739,538.7080000000002,0.0
52627.0,STARLINK-3992,PAYLOAD,2022-08-15 22:00:00,15.08852808,0.0001521999999999,53.2205,352.9946,55.4353,38.2182,-0.002607,-0.00041554,0.0,0 STARLINK-3992,1 52627U 22052AF  22227.91667824 -.00041554  00000-0 -26070-2 0  9999,2 52627  53.2205 352.9946 0001522  55.4353  38.2182 15.08852808  1307,6917.840999999999,95.437,540.759,538.653,0.0
52627.0,STARLINK-3992,PAYLOAD,2022-08-16 12:00:00,15.08846587,0.0001496999999999,53.2209,350.3758,62.5764,321.348,-0.0015207,-0.00024413,0.0,0 STARLINK-3992,1 52627U 22052AF  22228.50001157 -.00024413  00000-0 -15207-2 0  9991,2 52627  53.2209 350.3758 0001497  62.5764 321.3480 15.08846587 14937,6917.86,95.437,540.761,538.69,0.0
52627.0,STARLINK-3992,PAYLOAD,2022-08-16 14:00:01,15.08840187,0.0001544,53.2207,350.0022,60.1979,56.6268,-0.0010707,-0.00017288,0.0,0 STARLINK-3992,1 52627U 22052AF  22228.58334491 -.00017288  00000-0 -10707-2 0  9991,2 52627  53.2207 350.0022 0001544  60.1979  56.6268 15.08840187  1300,6917.88,95.438,540.813,538.677,0.0
52627.0,STARLINK-3992,PAYLOAD,2022-08-16 22:00:00,15.08850238,0.0001538,53.2204,348.5059,56.6317,71.7811,-0.00035914,-6.001e-05,0.0,0 STARLINK-3992,1 52627U 22052AF  22228.91667824 -.00006001  00000-0 -35914-3 0  9996,2 52627  53.2204 348.5059 0001538  56.6317  71.7811 15.08850238  1308,6917.849,95.437,540.778,538.65,0.0
52627.0,STARLINK-3992,PAYLOAD,2022-08-17 04:00:00,15.08824258,0.0001361,53.2206,347.3825,64.002,343.1196,0.0026601,0.00042283,0.0,0 STARLINK-3992,1 52627U 22052AF  22229.16667824  .00042283  00000-0  26601-2 0  9996,2 52627  53.2206 347.3825 0001361  64.0020 343.1196 15.08824258 15036,6917.929,95.439,540.735,538.852,0.0
52627.0,STARLINK-3992,PAYLOAD,2022-08-17 12:00:00,15.08866989,0.0001398,53.2206,345.8873,60.83600000000001,357.8753,-0.0041126,-0.00065195,0.0,0 STARLINK-3992,1 52627U 22052AF  22229.50001157 -.00065195  00000-0 -41126-2 0  9993,2 52627  53.2206 345.8873 0001398  60.8360 357.8753 15.08866989 15086,6917.7980000000025,95.436,540.63,538.696,0.0
52627.0,STARLINK-3992,PAYLOAD,2022-08-17 16:00:00,15.08825075,0.0001447,53.2205,345.1398,55.5049,189.0182,0.00070348,0.00010921,0.0,0 STARLINK-3992,1 52627U 22052AF  22229.66667824  .00010921  00000-0  70348-3 0  9993,2 52627  53.2205 345.1398 0001447  55.5049 189.0182 15.08825075 15105,6917.926,95.438,540.7919999999998,538.79,0.0
52627.0,STARLINK-3992,PAYLOAD,2022-08-18 14:00:01,15.08865981,0.0001421,53.2199,341.0249,57.6031,128.8124,-0.00085448,-0.00013871,0.0,0 STARLINK-3992,1 52627U 22052AF  22230.58334491 -.00013871  00000-0 -85448-3 0  9993,2 52627  53.2199 341.0249 0001421  57.6031 128.8124 15.08865981  1307,6917.801,95.436,540.649,538.683,0.0
52627.0,STARLINK-3992,PAYLOAD,2022-08-18 20:00:01,15.0886633,0.0001475,53.2195,339.9028,54.1214,51.0091,-0.0013804,-0.00022206,0.0,0 STARLINK-3992,1 52627U 22052AF  22230.83334491 -.00022206  00000-0 -13804-2 0  9999,2 52627  53.2195 339.9028 0001475  54.1214  51.0091 15.08866330 15289,6917.8,95.436,540.685,538.645,0.0
52627.0,STARLINK-3992,PAYLOAD,2022-08-18 22:00:00,15.08871436,0.0001460999999999,53.2195,339.5281,56.9767,141.058,-0.0027024,-0.00043076,0.0,0 STARLINK-3992,1 52627U 22052AF  22230.91667824 -.00043076  00000-0 -27024-2 0  9994,2 52627  53.2195 339.5281 0001461  56.9767 141.0580 15.08871436  1308,6917.784000000002,95.436,540.66,538.639,0.0
52627.0,STARLINK-3992,PAYLOAD,2022-08-19 14:00:01,15.08806718,0.0001523,53.2194,336.5361,59.4142,161.8296,-0.0011236,-0.00018109,0.0,0 STARLINK-3992,1 52627U 22052AF  22231.58334491 -.00018109  00000-0 -11236-2 0  9996,2 52627  53.2194 336.5361 0001523  59.4142 161.8296 15.08806718  1302,6917.982,95.44,540.901,538.794,0.0
52627.0,STARLINK-3992,PAYLOAD,2022-08-19 20:00:01,15.08799098,0.0001488,53.2191,335.4138,55.3624,84.5407,0.00083149,0.00012955,0.0,0 STARLINK-3992,1 52627U 22052AF  22231.83334491  .00012955  00000-0  83149-3 0  9998,2 52627  53.2191 335.4138 0001488  55.3624  84.5407 15.08799098 15435,6918.005,95.44,540.9,538.841,0.0
52627.0,STARLINK-3992,PAYLOAD,2022-08-19 22:00:00,15.08818058,0.0001446,53.2192,335.0392,57.785,175.0004,-0.0016277,-0.00026084,0.0,0 STARLINK-3992,1 52627U 22052AF  22231.91667824 -.00026084  00000-0 -16277-2 0  9993,2 52627  53.2192 335.0392 0001446  57.7850 175.0004 15.08818058  1303,6917.946999999999,95.439,540.813,538.812,0.0
52627.0,STARLINK-3992,PAYLOAD,2022-08-20 14:00:01,15.08815822,0.0001541,53.2193,332.0474,57.5382,198.3737,0.00046763,7.157e-05,0.0,0 STARLINK-3992,1 52627U 22052AF  22232.58334491  .00007157  00000-0  46763-3 0  9990,2 52627  53.2193 332.0474 0001541  57.5382 198.3737 15.08815822  1303,6917.954000000002,95.439,540.885,538.753,0.0
52627.0,STARLINK-3992,PAYLOAD,2022-08-20 20:00:01,15.0882802,0.0001513,53.2191,330.9249,54.5378,120.11,0.00028995,4.328e-05,0.0,0 STARLINK-3992,1 52627U 22052AF  22232.83335648  .00004328  00000-0  28995-3 0  9997,2 52627  53.2191 330.9249 0001513  54.5378 120.1100 15.08828020 15585,6917.917,95.438,540.8290000000002,538.735,0.0
52627.0,STARLINK-3992,PAYLOAD,2022-08-20 22:00:00,15.08843802,0.0001465,53.2193,330.5504,56.3678,211.1081,-0.0018047,-0.00028898,0.0,0 STARLINK-3992,1 52627U 22052AF  22232.91667824 -.00028898  00000-0 -18047-2 0  9996,2 52627  53.2193 330.5504 0001465  56.3678 211.1081 15.08843802  1305,6917.869000000002,95.437,540.747,538.72,0.0
52627.0,STARLINK-3992,PAYLOAD,2022-08-21 14:00:01,15.08831923,0.0001597,53.2196,327.5585,55.8395,234.8101,0.00056887,8.775e-05,0.0,0 STARLINK-3992,1 52627U 22052AF  22233.58334491  .00008775  00000-0  56887-3 0  9996,2 52627  53.2196 327.5585 0001597  55.8395 234.8101 15.08831923  1305,6917.905,95.438,540.875,538.665,0.0
52627.0,STARLINK-3992,PAYLOAD,2022-08-21 22:00:00,15.08862882,0.0001512,53.2197,326.0614,55.0869,247.1501,-0.0019320999999999,-0.00030925,0.0,0 STARLINK-3992,1 52627U 22052AF  22233.91667824 -.00030925  00000-0 -19321-2 0  9997,2 52627  53.2197 326.0614 0001512  55.0869 247.1501 15.08862882  1307,6917.81,95.436,540.721,538.629,0.0
52627.0,STARLINK-3992,PAYLOAD,2022-08-22 04:00:00,15.08831637,0.0001445,53.2198,324.9381,60.8152,160.134,0.0027021,0.00042968,0.0,0 STARLINK-3992,1 52627U 22052AF  22234.16667824  .00042968  00000-0  27021-2 0  9999,2 52627  53.2198 324.9381 0001445  60.8152 160.1340 15.08831637 15786,6917.906,95.438,540.771,538.771,0.0
52627.0,STARLINK-3992,PAYLOAD,2022-08-22 12:00:00,15.08871532,0.0001559,53.2199,323.4434,55.2571,177.2943,-0.0029555999999999,-0.0004706,0.0,0 STARLINK-3992,1 52627U 22052AF  22234.50001157 -.00047060  00000-0 -29556-2 0  9993,2 52627  53.2199 323.4434 0001559  55.2571 177.2943 15.08871532  1308,6917.784000000002,95.436,540.727,538.571,0.0
52627.0,STARLINK-3992,PAYLOAD,2022-08-22 20:00:01,15.08852181,0.0001495,53.22,321.947,50.2513,193.9102,-0.0015110999999999,-0.00024265,0.0,0 STARLINK-3992,1 52627U 22052AF  22234.83334491 -.00024265  00000-0 -15111-2 0  9993,2 52627  53.2200 321.9470 0001495  50.2513 193.9102 15.08852181 15883,6917.843000000003,95.437,540.742,538.674,0.0
52627.0,STARLINK-3992,PAYLOAD,2022-08-22 22:00:00,15.08853067,0.0001456,53.2201,321.5725,51.947,285.1145,-0.0019542,-0.00031265,0.0,0 STARLINK-3992,1 52627U 22052AF  22234.91667824 -.00031265  00000-0 -19542-2 0  9991,2 52627  53.2201 321.5725 0001456  51.9470 285.1145 15.08853067  1307,6917.84,95.437,540.7130000000002,538.698,0.0
52627.0,STARLINK-3992,PAYLOAD,2022-08-23 12:00:00,15.08846753,0.0001546,53.2203,318.9548,52.6455,214.7087,-0.00074734,-0.00012164,0.0,0 STARLINK-3992,1 52627U 22052AF  22235.50001157 -.00012164  00000-0 -74734-3 0  9990,2 52627  53.2203 318.9548 0001546  52.6455 214.7087 15.08846753 15989,6917.86,95.437,540.794,538.655,0.0
52627.0,STARLINK-3992,PAYLOAD,2022-08-23 14:00:01,15.08837878,0.0001592,53.2205,318.5811,51.5994,308.6568,0.0004633999999999,7.094e-05,0.0,0 STARLINK-3992,1 52627U 22052AF  22235.58334491  .00007094  00000-0  46340-3 0  9994,2 52627  53.2205 318.5811 0001592  51.5994 308.6568 15.08837878  1314,6917.887,95.438,540.8530000000002,538.651,0.0
